[
    {
        "Altitude(m)": 703690.9160905514,
        "Argument of Periapsis(deg)": 0.005695060593313534,
        "Eccentricity": 0.0,
        "Inclination(deg)": 45.0,
        "Latitude(deg)": 26.203804505040345,
        "Longitude(deg)": -6.063977162536285,
        "Mean Anomaly(deg)": 38.49390832374039,
        "RAAN(deg)": 64.99462402927091,
        "Satellite Name": "Constellation 1 288",
        "Satellite Number": 288,
        "Semi-Major Axis(m)": 7083131.272910544,
        "Time(s)": 95
    },
    {
        "Altitude(m)": 703696.0020430777,
        "Argument of Periapsis(deg)": 0.00575500859955894,
        "Eccentricity": 0.0,
        "Inclination(deg)": 45.0,
        "Latitude(deg)": 26.241422332433203,
        "Longitude(deg)": -6.0148807984007435,
        "Mean Anomaly(deg)": 38.554609463990325,
        "RAAN(deg)": 64.99456744010533,
        "Satellite Name": "Constellation 1 288",
        "Satellite Number": 288,
        "Semi-Major Axis(m)": 7083131.272910544,
        "Time(s)": 96
    },
    {
        "Altitude(m)": 703701.09631016,
        "Argument of Periapsis(deg)": 0.005814956605804345,
        "Eccentricity": 0.0,
        "Inclination(deg)": 45.0,
        "Latitude(deg)": 26.27902026211636,
        "Longitude(deg)": -5.965750023102346,
        "Mean Anomaly(deg)": 38.61531060424021,
        "RAAN(deg)": 64.99451085093976,
        "Satellite Name": "Constellation 1 288",
        "Satellite Number": 288,
        "Semi-Major Axis(m)": 7083131.272910544,
        "Time(s)": 97
    },
    {
        "Altitude(m)": 703706.1988539643,
        "Argument of Periapsis(deg)": 0.00587490461204975,
        "Eccentricity": 0.0,
        "Inclination(deg)": 45.0,
        "Latitude(deg)": 26.3165982488583,
        "Longitude(deg)": -5.916584944110967,
        "Mean Anomaly(deg)": 38.676011744490104,
        "RAAN(deg)": 64.99445426177418,
        "Satellite Name": "Constellation 1 288",
        "Satellite Number": 288,
        "Semi-Major Axis(m)": 7083131.272910544,
        "Time(s)": 98
    },
    {
        "Altitude(m)": 703711.3096366287,
        "Argument of Periapsis(deg)": 0.005934852618295156,
        "Eccentricity": 0.0,
        "Inclination(deg)": 45.0,
        "Latitude(deg)": 26.354156247361633,
        "Longitude(deg)": -5.867385500805036,
        "Mean Anomaly(deg)": 38.73671288474001,
        "RAAN(deg)": 64.99439767260863,
        "Satellite Name": "Constellation 1 288",
        "Satellite Number": 288,
        "Semi-Major Axis(m)": 7083131.272910544,
        "Time(s)": 99
    },
    {
        "Altitude(m)": 703716.4286202624,
        "Argument of Periapsis(deg)": 0.005994800624540561,
        "Eccentricity": 0.0,
        "Inclination(deg)": 45.0,
        "Latitude(deg)": 26.391694212262685,
        "Longitude(deg)": -5.8181516325689895,
        "Mean Anomaly(deg)": 38.797414024989905,
        "RAAN(deg)": 64.99434108344305,
        "Satellite Name": "Constellation 1 288",
        "Satellite Number": 288,
        "Semi-Major Axis(m)": 7083131.272910544,
        "Time(s)": 100
    },
    {
        "Altitude(m)": 703721.5557669611,
        "Argument of Periapsis(deg)": 0.006054748630785968,
        "Eccentricity": 0.0,
        "Inclination(deg)": 45.0,
        "Latitude(deg)": 26.429212098131448,
        "Longitude(deg)": -5.768883278793493,
        "Mean Anomaly(deg)": 38.8581151652398,
        "RAAN(deg)": 64.99428449427748,
        "Satellite Name": "Constellation 1 288",
        "Satellite Number": 288,
        "Semi-Major Axis(m)": 7083131.272910544,
        "Time(s)": 101
    },
    {
        "Altitude(m)": 703726.6910387899,
        "Argument of Periapsis(deg)": 0.006114696637031373,
        "Eccentricity": 0.0,
        "Inclination(deg)": 45.0,
        "Latitude(deg)": 26.466709859471475,
        "Longitude(deg)": -5.7195803788759285,
        "Mean Anomaly(deg)": 38.9188163054897,
        "RAAN(deg)": 64.99422790511191,
        "Satellite Name": "Constellation 1 288",
        "Satellite Number": 288,
        "Semi-Major Axis(m)": 7083131.272910544,
        "Time(s)": 102
    },
    {
        "Altitude(m)": 703731.8343977917,
        "Argument of Periapsis(deg)": 0.006174644643276778,
        "Eccentricity": 0.0,
        "Inclination(deg)": 45.0,
        "Latitude(deg)": 26.504187450719815,
        "Longitude(deg)": -5.670242872220733,
        "Mean Anomaly(deg)": 38.9795174457396,
        "RAAN(deg)": 64.99417131594635,
        "Satellite Name": "Constellation 1 288",
        "Satellite Number": 288,
        "Semi-Major Axis(m)": 7083131.272910544,
        "Time(s)": 103
    },
    {
        "Altitude(m)": 703736.9858059864,
        "Argument of Periapsis(deg)": 0.006234592649522184,
        "Eccentricity": 0.0,
        "Inclination(deg)": 45.0,
        "Latitude(deg)": 26.54164482624653,
        "Longitude(deg)": -5.620870866336866,
        "Mean Anomaly(deg)": 39.040218585989486,
        "RAAN(deg)": 64.99411472678078,
        "Satellite Name": "Constellation 1 288",
        "Satellite Number": 288,
        "Semi-Major Axis(m)": 7083131.272910544,
        "Time(s)": 104
    },
    {
        "Altitude(m)": 703742.145225365,
        "Argument of Periapsis(deg)": 0.00629454065576759,
        "Eccentricity": 0.0,
        "Inclination(deg)": 45.0,
        "Latitude(deg)": 26.57908194035601,
        "Longitude(deg)": -5.571463964450038,
        "Mean Anomaly(deg)": 39.10091972623942,
        "RAAN(deg)": 64.9940581376152,
        "Satellite Name": "Constellation 1 288",
        "Satellite Number": 288,
        "Semi-Major Axis(m)": 7083131.272910544,
        "Time(s)": 105
    },
    {
        "Altitude(m)": 703747.3126179101,
        "Argument of Periapsis(deg)": 0.006354488662012995,
        "Eccentricity": 0.0,
        "Inclination(deg)": 45.0,
        "Latitude(deg)": 26.61649874728479,
        "Longitude(deg)": -5.52202227408522,
        "Mean Anomaly(deg)": 39.1616208664893,
        "RAAN(deg)": 64.99400154844963,
        "Satellite Name": "Constellation 1 288",
        "Satellite Number": 288,
        "Semi-Major Axis(m)": 7083131.272910544,
        "Time(s)": 106
    },
    {
        "Altitude(m)": 703752.4879455632,
        "Argument of Periapsis(deg)": 0.006414436668258401,
        "Eccentricity": 0.0,
        "Inclination(deg)": 45.0,
        "Latitude(deg)": 26.65389520120296,
        "Longitude(deg)": -5.47254573467902,
        "Mean Anomaly(deg)": 39.2223220067392,
        "RAAN(deg)": 64.99394495928408,
        "Satellite Name": "Constellation 1 288",
        "Satellite Number": 288,
        "Semi-Major Axis(m)": 7083131.272910544,
        "Time(s)": 107
    },
    {
        "Altitude(m)": 703757.671170258,
        "Argument of Periapsis(deg)": 0.0064743846745038075,
        "Eccentricity": 0.0,
        "Inclination(deg)": 45.0,
        "Latitude(deg)": 26.691271256213525,
        "Longitude(deg)": -5.423034285677091,
        "Mean Anomaly(deg)": 39.283023146989095,
        "RAAN(deg)": 64.9938883701185,
        "Satellite Name": "Constellation 1 288",
        "Satellite Number": 288,
        "Semi-Major Axis(m)": 7083131.272910544,
        "Time(s)": 108
    },
    {
        "Altitude(m)": 703762.8622538975,
        "Argument of Periapsis(deg)": 0.0065343326807492125,
        "Eccentricity": 0.0,
        "Inclination(deg)": 45.0,
        "Latitude(deg)": 26.728626866352524,
        "Longitude(deg)": -5.373487866534426,
        "Mean Anomaly(deg)": 39.343724287239,
        "RAAN(deg)": 64.99383178095293,
        "Satellite Name": "Constellation 1 288",
        "Satellite Number": 288,
        "Semi-Major Axis(m)": 7083131.272910544,
        "Time(s)": 109
    },
    {
        "Altitude(m)": 703768.0611583659,
        "Argument of Periapsis(deg)": 0.0065942806869946176,
        "Eccentricity": 0.0,
        "Inclination(deg)": 45.0,
        "Latitude(deg)": 26.76596198558878,
        "Longitude(deg)": -5.323906416715903,
        "Mean Anomaly(deg)": 39.404425427488896,
        "RAAN(deg)": 64.99377519178735,
        "Satellite Name": "Constellation 1 288",
        "Satellite Number": 288,
        "Semi-Major Axis(m)": 7083131.272910544,
        "Time(s)": 110
    },
    {
        "Altitude(m)": 703773.2678455284,
        "Argument of Periapsis(deg)": 0.006654228693240024,
        "Eccentricity": 0.0,
        "Inclination(deg)": 45.0,
        "Latitude(deg)": 26.803276567823634,
        "Longitude(deg)": -5.2742900437935445,
        "Mean Anomaly(deg)": 39.46512656773879,
        "RAAN(deg)": 64.9937186026218,
        "Satellite Name": "Constellation 1 288",
        "Satellite Number": 288,
        "Semi-Major Axis(m)": 7083131.272910544,
        "Time(s)": 111
    },
    {
        "Altitude(m)": 703778.4822772177,
        "Argument of Periapsis(deg)": 0.006714176699485429,
        "Eccentricity": 0.0,
        "Inclination(deg)": 45.0,
        "Latitude(deg)": 26.84057056689194,
        "Longitude(deg)": -5.22463835105914,
        "Mean Anomaly(deg)": 39.5258277079887,
        "RAAN(deg)": 64.99366201345622,
        "Satellite Name": "Constellation 1 288",
        "Satellite Number": 288,
        "Semi-Major Axis(m)": 7083131.272910544,
        "Time(s)": 112
    },
    {
        "Altitude(m)": 703783.7044152549,
        "Argument of Periapsis(deg)": 0.006774124705730835,
        "Eccentricity": 0.0,
        "Inclination(deg)": 45.0,
        "Latitude(deg)": 26.877843936560346,
        "Longitude(deg)": -5.174951446106337,
        "Mean Anomaly(deg)": 39.586528848238586,
        "RAAN(deg)": 64.99360542429065,
        "Satellite Name": "Constellation 1 288",
        "Satellite Number": 288,
        "Semi-Major Axis(m)": 7083131.272910544,
        "Time(s)": 113
    }
]